{"type": "FeatureCollection", "features": [{"type": "Feature", "id": "DYFI.UTM:(35T 0493 4790 1000)", "properties": {"code": "UTM:(35T 0493 4790 1000)", "name": null, "refid": 1, "instrumentType": "OBSERVED", "source": "USGS (Did You Feel It?)", "network": "DYFI", "commType": "UNK", "location": "", "intensity": "null", "intensity_flag": "0", "intensity_stddev": "null", "pga": "null", "pgv": "null", "distance": 1859.347, "elev": null, "vs30": 760.0, "channels": [], "nresp": "null", "station_type": "macroseismic", "predictions": [{"name": "sa(0.3)", "value": 0.0, "value_rock": 0.0, "value_soil": 0.0001, "units": "%g", "ln_tau": 0.3001, "ln_phi": 0.6145, "ln_sigma": 0.6839, "ln_sigma_rock": 0.6866, "ln_sigma_soil": 0.6747, "ln_bias": -0.0195, "ln_bias_sigma": 0.1879}, {"name": "pgv", "value": 0.0171, "value_rock": 0.0171, "value_soil": 0.0494, "units": "cm/s", "ln_tau": 0.319, "ln_phi": 0.5365, "ln_sigma": 0.6242, "ln_sigma_rock": 0.6252, "ln_sigma_soil": 0.6073, "ln_bias": 0.0322, "ln_bias_sigma": 0.1775}, {"name": "sa(1.0)", "value": 0.0132, "value_rock": 0.0132, "value_soil": 0.0565, "units": "%g", "ln_tau": 0.3335, "ln_phi": 0.6514, "ln_sigma": 0.7318, "ln_sigma_rock": 0.7321, "ln_sigma_soil": 0.7278, "ln_bias": 0.0985, "ln_bias_sigma": 0.206}, {"name": "sa(3.0)", "value": 0.0355, "value_rock": 0.0355, "value_soil": 0.1516, "units": "%g", "ln_tau": 0.3635, "ln_phi": 0.6362, "ln_sigma": 0.7327, "ln_sigma_rock": 0.7314, "ln_sigma_soil": 0.7314, "ln_bias": 0.0541, "ln_bias_sigma": 0.2341}, {"name": "pga", "value": 0.0, "value_rock": 0.0, "value_soil": 0.0, "units": "%g", "ln_tau": 0.3224, "ln_phi": 0.5361, "ln_sigma": 0.6256, "ln_sigma_rock": 0.6263, "ln_sigma_soil": 0.6115, "ln_bias": -0.0034, "ln_bias_sigma": 0.0675}, {"name": "mmi", "value": 1.0, "value_rock": 1.0, "value_soil": 1.3716, "units": "intensity", "tau": 0.3007, "phi": 0.8078, "sigma": 0.8619, "sigma_rock": 0.8626, "sigma_soil": 0.8512, "bias": 0.0132, "bias_sigma": 0.0984}], "pgm_from_mmi": [{"name": "sa(0.3)", "value": null, "units": "%g", "ln_sigma": null, "flag": "0"}, {"name": "pgv", "value": null, "units": "cm/s", "ln_sigma": null, "flag": "0"}, {"name": "sa(1.0)", "value": null, "units": "%g", "ln_sigma": null, "flag": "0"}, {"name": "sa(3.0)", "value": null, "units": "%g", "ln_sigma": null, "flag": "0"}, {"name": "pga", "value": null, "units": "%g", "ln_sigma": null, "flag": "0"}], "distances": {"repi": 1881.3, "rhypo": 1881.396, "rjb": 1862.463, "rrup": 1859.347, "rx": -1275.174, "ry0": 1305.485}}, "geometry": {"type": "Point", "coordinates": [26.9199, 43.2673]}}, {"type": "Feature", "id": "DYFI.UTM:(35U 0571 5539 1000)", "properties": {"code": "UTM:(35U 0571 5539 1000)", "name": null, "refid": 1, "instrumentType": "OBSERVED", "source": "USGS (Did You Feel It?)", "network": "DYFI", "commType": "UNK", "location": "", "intensity": "null", "intensity_flag": "0", "intensity_stddev": "null", "pga": "null", "pgv": "null", "distance": 2194.761, "elev": null, "vs30": 760.0, "channels": [], "nresp": "null", "station_type": "macroseismic", "predictions": [{"name": "sa(0.3)", "value": 0.0, "value_rock": 0.0, "value_soil": 0.0, "units": "%g", "ln_tau": 0.3001, "ln_phi": 0.6145, "ln_sigma": 0.6839, "ln_sigma_rock": 0.6866, "ln_sigma_soil": 0.6747, "ln_bias": -0.0195, "ln_bias_sigma": 0.1879}, {"name": "pgv", "value": 0.0076, "value_rock": 0.0076, "value_soil": 0.0218, "units": "cm/s", "ln_tau": 0.319, "ln_phi": 0.5365, "ln_sigma": 0.6242, "ln_sigma_rock": 0.6252, "ln_sigma_soil": 0.6074, "ln_bias": 0.0322, "ln_bias_sigma": 0.1775}, {"name": "sa(1.0)", "value": 0.0056, "value_rock": 0.0056, "value_soil": 0.0241, "units": "%g", "ln_tau": 0.3335, "ln_phi": 0.6514, "ln_sigma": 0.7318, "ln_sigma_rock": 0.7321, "ln_sigma_soil": 0.7278, "ln_bias": 0.0985, "ln_bias_sigma": 0.206}, {"name": "sa(3.0)", "value": 0.0243, "value_rock": 0.0243, "value_soil": 0.1035, "units": "%g", "ln_tau": 0.3635, "ln_phi": 0.6362, "ln_sigma": 0.7327, "ln_sigma_rock": 0.7314, "ln_sigma_soil": 0.7314, "ln_bias": 0.0541, "ln_bias_sigma": 0.2341}, {"name": "pga", "value": 0.0, "value_rock": 0.0, "value_soil": 0.0, "units": "%g", "ln_tau": 0.3224, "ln_phi": 0.5361, "ln_sigma": 0.6256, "ln_sigma_rock": 0.6263, "ln_sigma_soil": 0.6115, "ln_bias": -0.0034, "ln_bias_sigma": 0.0675}, {"name": "mmi", "value": 1.0, "value_rock": 1.0, "value_soil": 1.0, "units": "intensity", "tau": 0.3007, "phi": 0.8078, "sigma": 0.8619, "sigma_rock": 0.8626, "sigma_soil": 0.8512, "bias": 0.0132, "bias_sigma": 0.0984}], "pgm_from_mmi": [{"name": "sa(0.3)", "value": null, "units": "%g", "ln_sigma": null, "flag": "0"}, {"name": "pgv", "value": null, "units": "cm/s", "ln_sigma": null, "flag": "0"}, {"name": "sa(1.0)", "value": null, "units": "%g", "ln_sigma": null, "flag": "0"}, {"name": "sa(3.0)", "value": null, "units": "%g", "ln_sigma": null, "flag": "0"}, {"name": "pga", "value": null, "units": "%g", "ln_sigma": null, "flag": "0"}], "distances": {"repi": 2221.549, "rhypo": 2221.63, "rjb": 2198.488, "rrup": 2194.761, "rx": -906.103, "ry0": 1960.178}}, "geometry": {"type": "Point", "coordinates": [27.9977, 50.0035]}}, {"type": "Feature", "id": "DYFI.UTM:(36R 0329 3326 1000)", "properties": {"code": "UTM:(36R 0329 3326 1000)", "name": null, "refid": 1, "instrumentType": "OBSERVED", "source": "USGS (Did You Feel It?)", "network": "DYFI", "commType": "UNK", "location": "", "intensity": "null", "intensity_flag": "0", "intensity_stddev": "null", "pga": "null", "pgv": "null", "distance": 1463.63, "elev": null, "vs30": 760.0, "channels": [], "nresp": "null", "station_type": "macroseismic", "predictions": [{"name": "sa(0.3)", "value": 0.0004, "value_rock": 0.0004, "value_soil": 0.0013, "units": "%g", "ln_tau": 0.3001, "ln_phi": 0.6145, "ln_sigma": 0.6839, "ln_sigma_rock": 0.6866, "ln_sigma_soil": 0.6747, "ln_bias": -0.0195, "ln_bias_sigma": 0.1879}, {"name": "pgv", "value": 0.0466, "value_rock": 0.0466, "value_soil": 0.1343, "units": "cm/s", "ln_tau": 0.319, "ln_phi": 0.5365, "ln_sigma": 0.6242, "ln_sigma_rock": 0.6252, "ln_sigma_soil": 0.6071, "ln_bias": 0.0322, "ln_bias_sigma": 0.1775}, {"name": "sa(1.0)", "value": 0.0371, "value_rock": 0.0371, "value_soil": 0.1592, "units": "%g", "ln_tau": 0.3335, "ln_phi": 0.6514, "ln_sigma": 0.7318, "ln_sigma_rock": 0.7321, "ln_sigma_soil": 0.7277, "ln_bias": 0.0985, "ln_bias_sigma": 0.206}, {"name": "sa(3.0)", "value": 0.0576, "value_rock": 0.0576, "value_soil": 0.2458, "units": "%g", "ln_tau": 0.3635, "ln_phi": 0.6362, "ln_sigma": 0.7327, "ln_sigma_rock": 0.7314, "ln_sigma_soil": 0.7313, "ln_bias": 0.0541, "ln_bias_sigma": 0.2341}, {"name": "pga", "value": 0.0001, "value_rock": 0.0001, "value_soil": 0.0001, "units": "%g", "ln_tau": 0.3224, "ln_phi": 0.5361, "ln_sigma": 0.6256, "ln_sigma_rock": 0.6263, "ln_sigma_soil": 0.6115, "ln_bias": -0.0034, "ln_bias_sigma": 0.0675}, {"name": "mmi", "value": 1.3166, "value_rock": 1.3166, "value_soil": 2.084, "units": "intensity", "tau": 0.3007, "phi": 0.8078, "sigma": 0.8619, "sigma_rock": 0.8626, "sigma_soil": 0.7397, "bias": 0.0132, "bias_sigma": 0.0984}], "pgm_from_mmi": [{"name": "sa(0.3)", "value": null, "units": "%g", "ln_sigma": null, "flag": "0"}, {"name": "pgv", "value": null, "units": "cm/s", "ln_sigma": null, "flag": "0"}, {"name": "sa(1.0)", "value": null, "units": "%g", "ln_sigma": null, "flag": "0"}, {"name": "sa(3.0)", "value": null, "units": "%g", "ln_sigma": null, "flag": "0"}, {"name": "pga", "value": null, "units": "%g", "ln_sigma": null, "flag": "0"}], "distances": {"repi": 1481.22, "rhypo": 1481.342, "rjb": 1466.018, "rrup": 1463.63, "rx": -1416.965, "ry0": 179.181}}, "geometry": {"type": "Point", "coordinates": [31.2313, 30.0577]}}, {"type": "Feature", "id": "DYFI.UTM:(36R 0344 3435 1000)", "properties": {"code": "UTM:(36R 0344 3435 1000)", "name": null, "refid": 1, "instrumentType": "OBSERVED", "source": "USGS (Did You Feel It?)", "network": "DYFI", "commType": "UNK", "location": "", "intensity": "null", "intensity_flag": "0", "intensity_stddev": "null", "pga": "null", "pgv": "null", "distance": 1409.524, "elev": null, "vs30": 760.0, "channels": [], "nresp": "null", "station_type": "macroseismic", "predictions": [{"name": "sa(0.3)", "value": 0.0006, "value_rock": 0.0006, "value_soil": 0.0018, "units": "%g", "ln_tau": 0.3001, "ln_phi": 0.6145, "ln_sigma": 0.6839, "ln_sigma_rock": 0.6866, "ln_sigma_soil": 0.6747, "ln_bias": -0.0195, "ln_bias_sigma": 0.1879}, {"name": "pgv", "value": 0.0536, "value_rock": 0.0536, "value_soil": 0.1545, "units": "cm/s", "ln_tau": 0.319, "ln_phi": 0.5365, "ln_sigma": 0.6242, "ln_sigma_rock": 0.6252, "ln_sigma_soil": 0.6071, "ln_bias": 0.0322, "ln_bias_sigma": 0.1775}, {"name": "sa(1.0)", "value": 0.0429, "value_rock": 0.0429, "value_soil": 0.1841, "units": "%g", "ln_tau": 0.3335, "ln_phi": 0.6514, "ln_sigma": 0.7318, "ln_sigma_rock": 0.7321, "ln_sigma_soil": 0.7277, "ln_bias": 0.0985, "ln_bias_sigma": 0.206}, {"name": "sa(3.0)", "value": 0.0618, "value_rock": 0.0618, "value_soil": 0.2636, "units": "%g", "ln_tau": 0.3635, "ln_phi": 0.6362, "ln_sigma": 0.7327, "ln_sigma_rock": 0.7314, "ln_sigma_soil": 0.7313, "ln_bias": 0.0541, "ln_bias_sigma": 0.2341}, {"name": "pga", "value": 0.0001, "value_rock": 0.0001, "value_soil": 0.0002, "units": "%g", "ln_tau": 0.3224, "ln_phi": 0.5361, "ln_sigma": 0.6256, "ln_sigma_rock": 0.6263, "ln_sigma_soil": 0.6115, "ln_bias": -0.0034, "ln_bias_sigma": 0.0675}, {"name": "mmi", "value": 1.449, "value_rock": 1.449, "value_soil": 2.1736, "units": "intensity", "tau": 0.3007, "phi": 0.8078, "sigma": 0.8619, "sigma_rock": 0.8626, "sigma_soil": 0.7397, "bias": 0.0132, "bias_sigma": 0.0984}], "pgm_from_mmi": [{"name": "sa(0.3)", "value": null, "units": "%g", "ln_sigma": null, "flag": "0"}, {"name": "pgv", "value": null, "units": "cm/s", "ln_sigma": null, "flag": "0"}, {"name": "sa(1.0)", "value": null, "units": "%g", "ln_sigma": null, "flag": "0"}, {"name": "sa(3.0)", "value": null, "units": "%g", "ln_sigma": null, "flag": "0"}, {"name": "pga", "value": null, "units": "%g", "ln_sigma": null, "flag": "0"}], "distances": {"repi": 1425.588, "rhypo": 1425.714, "rjb": 1411.811, "rrup": 1409.524, "rx": -1374.728, "ry0": 79.302}}, "geometry": {"type": "Point", "coordinates": [31.3705, 31.0429]}}, {"type": "Feature", "id": "DYFI.UTM:(36R 0351 3343 1000)", "properties": {"code": "UTM:(36R 0351 3343 1000)", "name": null, "refid": 1, "instrumentType": "OBSERVED", "source": "USGS (Did You Feel It?)", "network": "DYFI", "commType": "UNK", "location": "", "intensity": "null", "intensity_flag": "0", "intensity_stddev": "null", "pga": "null", "pgv": "null", "distance": 1436.878, "elev": null, "vs30": 760.0, "channels": [], "nresp": "null", "station_type": "macroseismic", "predictions": [{"name": "sa(0.3)", "value": 0.0005, "value_rock": 0.0005, "value_soil": 0.0015, "units": "%g", "ln_tau": 0.3001, "ln_phi": 0.6145, "ln_sigma": 0.6839, "ln_sigma_rock": 0.6866, "ln_sigma_soil": 0.6747, "ln_bias": -0.0195, "ln_bias_sigma": 0.1879}, {"name": "pgv", "value": 0.05, "value_rock": 0.05, "value_soil": 0.1439, "units": "cm/s", "ln_tau": 0.319, "ln_phi": 0.5365, "ln_sigma": 0.6242, "ln_sigma_rock": 0.6252, "ln_sigma_soil": 0.6071, "ln_bias": 0.0322, "ln_bias_sigma": 0.1775}, {"name": "sa(1.0)", "value": 0.0399, "value_rock": 0.0399, "value_soil": 0.171, "units": "%g", "ln_tau": 0.3335, "ln_phi": 0.6514, "ln_sigma": 0.7318, "ln_sigma_rock": 0.7321, "ln_sigma_soil": 0.7277, "ln_bias": 0.0985, "ln_bias_sigma": 0.206}, {"name": "sa(3.0)", "value": 0.0596, "value_rock": 0.0596, "value_soil": 0.2544, "units": "%g", "ln_tau": 0.3635, "ln_phi": 0.6362, "ln_sigma": 0.7327, "ln_sigma_rock": 0.7314, "ln_sigma_soil": 0.7313, "ln_bias": 0.0541, "ln_bias_sigma": 0.2341}, {"name": "pga", "value": 0.0001, "value_rock": 0.0001, "value_soil": 0.0002, "units": "%g", "ln_tau": 0.3224, "ln_phi": 0.5361, "ln_sigma": 0.6256, "ln_sigma_rock": 0.6263, "ln_sigma_soil": 0.6115, "ln_bias": -0.0034, "ln_bias_sigma": 0.0675}, {"name": "mmi", "value": 1.3819, "value_rock": 1.3819, "value_soil": 2.1283, "units": "intensity", "tau": 0.3007, "phi": 0.8078, "sigma": 0.8619, "sigma_rock": 0.8626, "sigma_soil": 0.7397, "bias": 0.0132, "bias_sigma": 0.0984}], "pgm_from_mmi": [{"name": "sa(0.3)", "value": null, "units": "%g", "ln_sigma": null, "flag": "0"}, {"name": "pgv", "value": null, "units": "cm/s", "ln_sigma": null, "flag": "0"}, {"name": "sa(1.0)", "value": null, "units": "%g", "ln_sigma": null, "flag": "0"}, {"name": "sa(3.0)", "value": null, "units": "%g", "ln_sigma": null, "flag": "0"}, {"name": "pga", "value": null, "units": "%g", "ln_sigma": null, "flag": "0"}], "distances": {"repi": 1454.194, "rhypo": 1454.318, "rjb": 1439.216, "rrup": 1436.878, "rx": -1392.542, "ry0": 169.386}}, "geometry": {"type": "Point", "coordinates": [31.4571, 30.214]}}, {"type": "Feature", "id": "DYFI.UTM:(36R 0658 3441 1000)", "properties": {"code": "UTM:(36R 0658 3441 1000)", "name": null, "refid": 1, "instrumentType": "OBSERVED", "source": "USGS (Did You Feel It?)", "network": "DYFI", "commType": "UNK", "location": "", "intensity": "null", "intensity_flag": "0", "intensity_stddev": "null", "pga": "null", "pgv": "null", "distance": 1118.854, "elev": null, "vs30": 760.0, "channels": [], "nresp": "null", "station_type": "macroseismic", "predictions": [{"name": "sa(0.3)", "value": 0.0044, "value_rock": 0.0044, "value_soil": 0.0129, "units": "%g", "ln_tau": 0.3001, "ln_phi": 0.6145, "ln_sigma": 0.6839, "ln_sigma_rock": 0.6866, "ln_sigma_soil": 0.6747, "ln_bias": -0.0195, "ln_bias_sigma": 0.1879}, {"name": "pgv", "value": 0.1166, "value_rock": 0.1166, "value_soil": 0.3353, "units": "cm/s", "ln_tau": 0.319, "ln_phi": 0.5365, "ln_sigma": 0.6242, "ln_sigma_rock": 0.6252, "ln_sigma_soil": 0.6066, "ln_bias": 0.0322, "ln_bias_sigma": 0.1775}, {"name": "sa(1.0)", "value": 0.0957, "value_rock": 0.0957, "value_soil": 0.4101, "units": "%g", "ln_tau": 0.3335, "ln_phi": 0.6514, "ln_sigma": 0.7318, "ln_sigma_rock": 0.7321, "ln_sigma_soil": 0.7275, "ln_bias": 0.0985, "ln_bias_sigma": 0.206}, {"name": "sa(3.0)", "value": 0.0919, "value_rock": 0.0919, "value_soil": 0.392, "units": "%g", "ln_tau": 0.3635, "ln_phi": 0.6362, "ln_sigma": 0.7327, "ln_sigma_rock": 0.7314, "ln_sigma_soil": 0.7313, "ln_bias": 0.0541, "ln_bias_sigma": 0.2341}, {"name": "pga", "value": 0.001, "value_rock": 0.001, "value_soil": 0.002, "units": "%g", "ln_tau": 0.3224, "ln_phi": 0.5361, "ln_sigma": 0.6256, "ln_sigma_rock": 0.6263, "ln_sigma_soil": 0.6115, "ln_bias": -0.0034, "ln_bias_sigma": 0.0675}, {"name": "mmi", "value": 1.994, "value_rock": 1.994, "value_soil": 2.6684, "units": "intensity", "tau": 0.2037, "phi": 0.7171, "sigma": 0.7454, "sigma_rock": 0.7458, "sigma_soil": 0.7395, "bias": 0.0089, "bias_sigma": 0.0667}], "pgm_from_mmi": [{"name": "sa(0.3)", "value": null, "units": "%g", "ln_sigma": null, "flag": "0"}, {"name": "pgv", "value": null, "units": "cm/s", "ln_sigma": null, "flag": "0"}, {"name": "sa(1.0)", "value": null, "units": "%g", "ln_sigma": null, "flag": "0"}, {"name": "sa(3.0)", "value": null, "units": "%g", "ln_sigma": null, "flag": "0"}, {"name": "pga", "value": null, "units": "%g", "ln_sigma": null, "flag": "0"}], "distances": {"repi": 1134.795, "rhypo": 1134.954, "rjb": 1120.588, "rrup": 1118.854, "rx": -1085.325, "ry0": 165.387}}, "geometry": {"type": "Point", "coordinates": [34.6618, 31.0966]}}, {"type": "Feature", "id": "DYFI.UTM:(36R 0663 3527 1000)", "properties": {"code": "UTM:(36R 0663 3527 1000)", "name": null, "refid": 1, "instrumentType": "OBSERVED", "source": "USGS (Did You Feel It?)", "network": "DYFI", "commType": "UNK", "location": "", "intensity": "null", "intensity_flag": "0", "intensity_stddev": "null", "pga": "null", "pgv": "null", "distance": 1080.642, "elev": null, "vs30": 760.0, "channels": [], "nresp": "null", "station_type": "macroseismic", "predictions": [{"name": "sa(0.3)", "value": 0.0056, "value_rock": 0.0056, "value_soil": 0.0168, "units": "%g", "ln_tau": 0.3001, "ln_phi": 0.6145, "ln_sigma": 0.6839, "ln_sigma_rock": 0.6866, "ln_sigma_soil": 0.6747, "ln_bias": -0.0195, "ln_bias_sigma": 0.1879}, {"name": "pgv", "value": 0.1295, "value_rock": 0.1295, "value_soil": 0.3725, "units": "cm/s", "ln_tau": 0.319, "ln_phi": 0.5365, "ln_sigma": 0.6242, "ln_sigma_rock": 0.6252, "ln_sigma_soil": 0.6065, "ln_bias": 0.0322, "ln_bias_sigma": 0.1775}, {"name": "sa(1.0)", "value": 0.1067, "value_rock": 0.1067, "value_soil": 0.4571, "units": "%g", "ln_tau": 0.3335, "ln_phi": 0.6514, "ln_sigma": 0.7318, "ln_sigma_rock": 0.7321, "ln_sigma_soil": 0.7275, "ln_bias": 0.0985, "ln_bias_sigma": 0.206}, {"name": "sa(3.0)", "value": 0.0971, "value_rock": 0.0971, "value_soil": 0.4143, "units": "%g", "ln_tau": 0.3635, "ln_phi": 0.6362, "ln_sigma": 0.7327, "ln_sigma_rock": 0.7314, "ln_sigma_soil": 0.7313, "ln_bias": 0.0541, "ln_bias_sigma": 0.2341}, {"name": "pga", "value": 0.0013, "value_rock": 0.0013, "value_soil": 0.0027, "units": "%g", "ln_tau": 0.3224, "ln_phi": 0.5361, "ln_sigma": 0.6256, "ln_sigma_rock": 0.6263, "ln_sigma_soil": 0.6115, "ln_bias": -0.0034, "ln_bias_sigma": 0.0675}, {"name": "mmi", "value": 2.0612, "value_rock": 2.0612, "value_soil": 2.7355, "units": "intensity", "tau": 0.2037, "phi": 0.7171, "sigma": 0.7454, "sigma_rock": 0.7458, "sigma_soil": 0.7395, "bias": 0.0089, "bias_sigma": 0.0667}], "pgm_from_mmi": [{"name": "sa(0.3)", "value": null, "units": "%g", "ln_sigma": null, "flag": "0"}, {"name": "pgv", "value": null, "units": "cm/s", "ln_sigma": null, "flag": "0"}, {"name": "sa(1.0)", "value": null, "units": "%g", "ln_sigma": null, "flag": "0"}, {"name": "sa(3.0)", "value": null, "units": "%g", "ln_sigma": null, "flag": "0"}, {"name": "pga", "value": null, "units": "%g", "ln_sigma": null, "flag": "0"}], "distances": {"repi": 1095.317, "rhypo": 1095.481, "rjb": 1082.3, "rrup": 1080.642, "rx": -1057.727, "ry0": 84.489}}, "geometry": {"type": "Point", "coordinates": [34.7285, 31.8715]}}, {"type": "Feature", "id": "DYFI.UTM:(36R 0669 3459 1000)", "properties": {"code": "UTM:(36R 0669 3459 1000)", "name": null, "refid": 1, "instrumentType": "OBSERVED", "source": "USGS (Did You Feel It?)", "network": "DYFI", "commType": "UNK", "location": "", "intensity": "null", "intensity_flag": "0", "intensity_stddev": "null", "pga": "null", "pgv": "null", "distance": 1101.407, "elev": null, "vs30": 760.0, "channels": [], "nresp": "null", "station_type": "macroseismic", "predictions": [{"name": "sa(0.3)", "value": 0.0049, "value_rock": 0.0049, "value_soil": 0.0145, "units": "%g", "ln_tau": 0.3001, "ln_phi": 0.6145, "ln_sigma": 0.6839, "ln_sigma_rock": 0.6866, "ln_sigma_soil": 0.6747, "ln_bias": -0.0195, "ln_bias_sigma": 0.1879}, {"name": "pgv", "value": 0.1223, "value_rock": 0.1223, "value_soil": 0.3518, "units": "cm/s", "ln_tau": 0.319, "ln_phi": 0.5365, "ln_sigma": 0.6242, "ln_sigma_rock": 0.6252, "ln_sigma_soil": 0.6066, "ln_bias": 0.0322, "ln_bias_sigma": 0.1775}, {"name": "sa(1.0)", "value": 0.1005, "value_rock": 0.1005, "value_soil": 0.4309, "units": "%g", "ln_tau": 0.3335, "ln_phi": 0.6514, "ln_sigma": 0.7318, "ln_sigma_rock": 0.7321, "ln_sigma_soil": 0.7275, "ln_bias": 0.0985, "ln_bias_sigma": 0.206}, {"name": "sa(3.0)", "value": 0.0942, "value_rock": 0.0942, "value_soil": 0.402, "units": "%g", "ln_tau": 0.3635, "ln_phi": 0.6362, "ln_sigma": 0.7327, "ln_sigma_rock": 0.7314, "ln_sigma_soil": 0.7313, "ln_bias": 0.0541, "ln_bias_sigma": 0.2341}, {"name": "pga", "value": 0.0011, "value_rock": 0.0011, "value_soil": 0.0023, "units": "%g", "ln_tau": 0.3224, "ln_phi": 0.5361, "ln_sigma": 0.6256, "ln_sigma_rock": 0.6263, "ln_sigma_soil": 0.6115, "ln_bias": -0.0034, "ln_bias_sigma": 0.0675}, {"name": "mmi", "value": 2.0246, "value_rock": 2.0246, "value_soil": 2.699, "units": "intensity", "tau": 0.2037, "phi": 0.7171, "sigma": 0.7454, "sigma_rock": 0.7458, "sigma_soil": 0.7395, "bias": 0.0089, "bias_sigma": 0.0667}], "pgm_from_mmi": [{"name": "sa(0.3)", "value": null, "units": "%g", "ln_sigma": null, "flag": "0"}, {"name": "pgv", "value": null, "units": "cm/s", "ln_sigma": nu